OBJECT_NAME,OBJECT_ID,EPOCH,MEAN_MOTION,ECCENTRICITY,INCLINATION,RA_OF_ASC_NODE,ARG_OF_PERICENTER,MEAN_ANOMALY,EPHEMERIS_TYPE,CLASSIFICATION_TYPE,NORAD_CAT_ID,ELEMENT_SET_NO,REV_AT_EPOCH,BSTAR,MEAN_MOTION_DOT,MEAN_MOTION_DDOT
HORIZONS-3E,2018-074B,2026-06-19T20:31:26.550624,1.00267073,.00008931,0.0016,83.0794,215.5434,86.3125,0,U,43633,999,2836,0,-.37E-6,0
AEHF-4 (USA 288),2018-079A,2026-06-19T22:50:39.929856,1.00271802,.00603517,1.4333,4.2544,355.9876,183.0802,0,U,43651,999,2832,0,-.281E-5,0
BEIDOU-3 G1,2018-085A,2026-06-19T22:11:30.926400,1.00270307,.00080843,2.8762,97.2925,350.1471,313.5244,0,U,43683,999,2808,0,-.115E-5,0
GSAT-29,2018-089A,2026-06-19T19:58:52.134240,1.00276817,.00039065,0.0994,264.3159,152.5723,205.9819,0,U,43698,999,2781,0,.78E-6,0
ES'HAIL 2,2018-090A,2026-06-19T19:50:32.521920,1.00272188,.00017836,0.0141,54.5765,70.0323,106.8506,0,U,43700,999,2770,0,.139E-5,0
GEO-KOMPSAT-2A,2018-100A,2026-06-19T20:19:50.164032,1.00272846,.00021694,0.0474,152.7967,293.2967,255.1909,0,U,43823,999,2765,0,-.349E-5,0
GSAT-11,2018-100B,2026-06-19T23:17:05.611776,1.00272707,.00078069,0.0497,257.3909,191.6495,242.4189,0,U,43824,999,2750,0,-.83E-6,0
GSAT-7A,2018-105A,2026-06-19T19:22:31.762848,1.00271843,.00020293,0.0278,94.8844,331.3087,195.2183,0,U,43864,999,2747,0,.21E-6,0
COSMOS 2533,2018-107A,2026-06-19T21:45:34.889184,1.00270734,.00006833,0.0429,98.8443,343.4162,222.2436,0,U,43867,999,2747,0,-.44E-6,0
TJS-3,2018-110A,2026-06-19T17:31:38.092800,1.00270135,.0002241,2.5524,80.4638,80.1954,158.4416,0,U,43874,999,2744,0,-.223E-5,0
ZHONGXING-2D,2019-001A,2026-06-19T22:02:54.251808,1.00270075,.0001348,0.0357,220.3838,115.8779,32.6108,0,U,43920,999,5410,0,-.342E-5,0
HELLAS-SAT 4 & SGS-1,2019-007A,2026-06-19T19:54:54.603360,1.00271761,.00048749,0.0745,128.6168,9.2596,107.9220,0,U,44034,999,2739,0,.147E-5,0
GSAT-31,2019-007B,2026-06-19T18:14:10.810176,1.00274360,.00015205,0.0583,256.9348,110.0478,222.4143,0,U,44035,999,2699,0,.119E-5,0
NUSANTARA SATU,2019-009A,2026-06-19T18:42:10.280160,1.00269010,.00043184,0.0405,137.1264,342.3299,215.0902,0,U,44048,999,2679,0,-.241E-5,0
ZHONGXING-6C,2019-012A,2026-06-19T22:03:01.740096,1.00272481,.00140445,0.0810,73.1310,336.8014,319.3656,0,U,44067,999,2676,0,-.341E-5,0
WGS 10 (USA 291),2019-014A,2026-06-19T23:03:12.206880,1.00270910,.00003403,0.0175,24.7178,327.3030,322.2694,0,U,44071,999,2664,0,.41E-6,0
TIANLIAN 2-01,2019-017A,2026-06-19T21:11:57.882912,1.00271167,.00008556,0.5480,83.1235,34.1248,185.8505,0,U,44076,999,2667,0,-.112E-5,0
ARABSAT-6A,2019-021A,2026-06-19T19:51:54.889632,1.00275324,.00014715,0.0511,15.0329,338.0181,243.4473,0,U,44186,999,2618,0,.148E-5,0
BEIDOU-3 IGSO-1,2019-023A,2026-06-19T15:08:57.350112,1.00290861,.00255776,58.6985,37.6233,225.7008,349.9014,0,U,44204,999,723,0,-.227E-5,0
BEIDOU-2 G8,2019-027A,2026-06-19T22:07:08.844960,1.00269962,.00101394,1.6661,74.5058,282.0922,27.8583,0,U,44231,999,2610,0,-.253E-5,0
YAMAL 601,2019-031A,2026-06-19T19:56:46.923360,1.00272381,.00024727,0.0171,31.5257,59.0906,165.6302,0,U,44307,999,2595,0,.114E-5,0
AT&T T-16,2019-034A,2026-06-19T20:57:01.597824,1.00271351,.00007936,0.0213,66.4153,244.4703,170.6036,0,U,44333,999,2566,0,-.121E-5,0
EUTELSAT 7C,2019-034B,2026-06-19T18:02:31.707168,1.00270826,.00031359,0.0725,176.7677,255.3811,113.4606,0,U,44334,999,686,0,.42E-6,0
BEIDOU-3 IGSO-2,2019-035A,2026-06-18T21:16:55.972416,1.00265889,.00396642,55.2463,158.8478,216.5160,330.6306,0,U,44337,999,2568,0,-.97E-6,0
COSMOS 2539,2019-048A,2026-06-19T02:39:59.489280,1.00273944,.00007477,0.0391,90.7372,357.0710,231.5178,0,U,44457,999,2524,0,.75E-6,0
EDRS-C,2019-049A,2026-06-19T20:23:49.780608,1.00270383,.00008334,0.0157,51.7899,38.7287,265.9784,0,U,44475,999,2523,0,-.268E-5,0
INTELSAT 39 (IS-39),2019-049B,2026-06-19T23:29:14.354304,1.00270957,.00009263,0.0109,339.1114,352.4452,350.8926,0,U,44476,999,2515,0,.28E-6,0
AMOS-17,2019-050A,2026-06-19T22:14:52.418112,1.00274215,.00019257,0.0228,316.9497,169.1801,132.7438,0,U,44479,999,2521,0,.104E-5,0
AEHF-5 (USA 292),2019-051A,2026-06-19T22:38:37.559328,1.00273090,.0066224,1.4515,336.4613,359.9197,4.5126,0,U,44481,999,2528,0,-.264E-5,0
EUTELSAT 5 WEST B,2019-067A,2026-06-19T20:28:38.572608,1.00270055,.00030827,0.0624,351.1019,97.4901,121.6554,0,U,44624,999,2446,0,-.48E-6,0
MEV-1,2019-067B,2026-06-16T22:18:40.152960,1.00269616,.00027946,0.8740,268.9828,179.8034,307.2103,0,U,44625,999,6174,0,-.149E-5,0
TJS-4,2019-070A,2026-06-19T17:08:22.059744,1.00273626,.00043824,0.0234,74.1763,324.1985,210.1387,0,U,44637,999,2456,0,-.176E-5,0
