HORIZONS-3E             
1 43633U 18074B   26170.85516841 -.00000037  00000+0  00000+0 0  9992
2 43633   0.0016  83.0794 0000893 215.5434  86.3125  1.00267073 28363
AEHF-4 (USA 288)        
1 43651U 18079A   26170.95185104 -.00000281  00000+0  00000+0 0  9993
2 43651   1.4333   4.2544 0060351 355.9876 183.0802  1.00271802 28320
BEIDOU-3 G1             
1 43683U 18085A   26170.92466350 -.00000115  00000+0  00000+0 0  9993
2 43683   2.8762  97.2925 0008084 350.1471 313.5244  1.00270307 28086
GSAT-29                 
1 43698U 18089A   26170.83254785  .00000078  00000+0  00000+0 0  9997
2 43698   0.0994 264.3159 0003906 152.5723 205.9819  1.00276817 27811
ES'HAIL 2               
1 43700U 18090A   26170.82676530  .00000139  00000+0  00000+0 0  9996
2 43700   0.0141  54.5765 0001783  70.0323 106.8506  1.00272188 27709
GEO-KOMPSAT-2A          
1 43823U 18100A   26170.84710838 -.00000349  00000+0  00000+0 0  9990
2 43823   0.0474 152.7967 0002169 293.2967 255.1909  1.00272846 27651
GSAT-11                 
1 43824U 18100B   26170.97020384 -.00000083  00000+0  00000+0 0  9990
2 43824   0.0497 257.3909 0007806 191.6495 242.4189  1.00272707 27504
GSAT-7A                 
1 43864U 18105A   26170.80731207  .00000021  00000+0  00000+0 0  9995
2 43864   0.0278  94.8844 0002029 331.3087 195.2183  1.00271843 27474
COSMOS 2533             
1 43867U 18107A   26170.90665381 -.00000044  00000+0  00000+0 0  9996
2 43867   0.0429  98.8443 0000683 343.4162 222.2436  1.00270734 27476
TJS-3                   
1 43874U 18110A   26170.73030200 -.00000223  00000+0  00000+0 0  9994
2 43874   2.5524  80.4638 0002241  80.1954 158.4416  1.00270135 27446
ZHONGXING-2D            
1 43920U 19001A   26170.91868347 -.00000342  00000+0  00000+0 0  9999
2 43920   0.0357 220.3838 0001348 115.8779  32.6108  1.00270075 54107
HELLAS-SAT 4 & SGS-1    
1 44034U 19007A   26170.82979865  .00000147  00000+0  00000+0 0  9992
2 44034   0.0745 128.6168 0004874   9.2596 107.9220  1.00271761 27396
GSAT-31                 
1 44035U 19007B   26170.75984734  .00000119  00000+0  00000+0 0  9995
2 44035   0.0583 256.9348 0001520 110.0478 222.4143  1.00274360 26997
NUSANTARA SATU          
1 44048U 19009A   26170.77928565 -.00000241  00000+0  00000+0 0  9990
2 44048   0.0405 137.1264 0004318 342.3299 215.0902  1.00269010 26795
ZHONGXING-6C            
1 44067U 19012A   26170.91877014 -.00000341  00000+0  00000+0 0  9994
2 44067   0.0810  73.1310 0014044 336.8014 319.3656  1.00272481 26764
WGS 10 (USA 291)        
1 44071U 19014A   26170.96055795  .00000041  00000+0  00000+0 0  9996
2 44071   0.0175  24.7178 0000340 327.3030 322.2694  1.00270910 26641
TIANLIAN 2-01           
1 44076U 19017A   26170.88330883 -.00000112  00000+0  00000+0 0  9999
2 44076   0.5480  83.1235 0000855  34.1248 185.8505  1.00271167 26670
ARABSAT-6A              
1 44186U 19021A   26170.82771863  .00000148  00000+0  00000+0 0  9995
2 44186   0.0511  15.0329 0001471 338.0181 243.4473  1.00275324 26187
BEIDOU-3 IGSO-1         
1 44204U 19023A   26170.63121933 -.00000227  00000+0  00000+0 0  9993
2 44204  58.6985  37.6233 0025577 225.7008 349.9014  1.00290861  7230
BEIDOU-2 G8             
1 44231U 19027A   26170.92163015 -.00000253  00000+0  00000+0 0  9995
2 44231   1.6661  74.5058 0010139 282.0922  27.8583  1.00269962 26101
YAMAL 601               
1 44307U 19031A   26170.83109865  .00000114  00000+0  00000+0 0  9992
2 44307   0.0171  31.5257 0002472  59.0906 165.6302  1.00272381 25954
AT&T T-16               
1 44333U 19034A   26170.87293516 -.00000121  00000+0  00000+0 0  9994
2 44333   0.0213  66.4153 0000793 244.4703 170.6036  1.00271351 25665
EUTELSAT 7C             
1 44334U 19034B   26170.75175587  .00000042  00000+0  00000+0 0  9990
2 44334   0.0725 176.7677 0003135 255.3811 113.4606  1.00270826  6869
BEIDOU-3 IGSO-2         
1 44337U 19035A   26169.88675894 -.00000097  00000+0  00000+0 0  9993
2 44337  55.2463 158.8478 0039664 216.5160 330.6306  1.00265889 25689
COSMOS 2539             
1 44457U 19048A   26170.11110520  .00000075  00000+0  00000+0 0  9993
2 44457   0.0391  90.7372 0000747 357.0710 231.5178  1.00273944 25248
EDRS-C                  
1 44475U 19049A   26170.84988172 -.00000268  00000+0  00000+0 0  9995
2 44475   0.0157  51.7899 0000833  38.7287 265.9784  1.00270383 25234
INTELSAT 39 (IS-39)     
1 44476U 19049B   26170.97863836  .00000028  00000+0  00000+0 0  9992
2 44476   0.0109 339.1114 0000926 352.4452 350.8926  1.00270957 25158
AMOS-17                 
1 44479U 19050A   26170.92699558  .00000104  00000+0  00000+0 0  9995
2 44479   0.0228 316.9497 0001925 169.1801 132.7438  1.00274215 25214
AEHF-5 (USA 292)        
1 44481U 19051A   26170.94349027 -.00000264  00000+0  00000+0 0  9992
2 44481   1.4515 336.4613 0066224 359.9197   4.5126  1.00273090 25285
EUTELSAT 5 WEST B       
1 44624U 19067A   26170.85322422 -.00000048  00000+0  00000+0 0  9998
2 44624   0.0624 351.1019 0003082  97.4901 121.6554  1.00270055 24467
MEV-1                   
1 44625U 19067B   26167.92963140 -.00000149  00000+0  00000+0 0  9993
2 44625   0.8740 268.9828 0002794 179.8034 307.2103  1.00269616 61744
TJS-4                   
1 44637U 19070A   26170.71414421 -.00000176  00000+0  00000+0 0  9994
2 44637   0.0234  74.1763 0004382 324.1985 210.1387  1.00273626 24568
